[{"OBJECT_NAME":"GALAXY 33 (G-33)","OBJECT_ID":"2022-128A","EPOCH":"2026-03-05T00:25:38.690688","MEAN_MOTION":1.00273895,"ECCENTRICITY":0.00018847,"INCLINATION":0.0175,"RA_OF_ASC_NODE":165.2977,"ARG_OF_PERICENTER":177.9169,"MEAN_ANOMALY":52.9895,"EPHEMERIS_TYPE":0,"CLASSIFICATION_TYPE":"U","NORAD_CAT_ID":54026,"ELEMENT_SET_NO":999,"REV_AT_EPOCH":1269,"BSTAR":0,"MEAN_MOTION_DOT":0,"MEAN_MOTION_DDOT":0},{"OBJECT_NAME":"GALAXY 34 (G-34)","OBJECT_ID":"2022-128B","EPOCH":"2026-03-05T02:10:38.765280","MEAN_MOTION":1.00273187,"ECCENTRICITY":0.00013768,"INCLINATION":0.013,"RA_OF_ASC_NODE":129.5428,"ARG_OF_PERICENTER":217.6718,"MEAN_ANOMALY":79.2813,"EPHEMERIS_TYPE":0,"CLASSIFICATION_TYPE":"U","NORAD_CAT_ID":54027,"ELEMENT_SET_NO":999,"REV_AT_EPOCH":1286,"BSTAR":0,"MEAN_MOTION_DOT":5.0e-7,"MEAN_MOTION_DDOT":0},{"OBJECT_NAME":"GALAXY 31 (G-31)","OBJECT_ID":"2022-153A","EPOCH":"2026-03-05T07:46:38.500608","MEAN_MOTION":1.00272772,"ECCENTRICITY":0.000149,"INCLINATION":0.0114,"RA_OF_ASC_NODE":186.2478,"ARG_OF_PERICENTER":168.2279,"MEAN_ANOMALY":164.2342,"EPHEMERIS_TYPE":0,"CLASSIFICATION_TYPE":"U","NORAD_CAT_ID":54243,"ELEMENT_SET_NO":999,"REV_AT_EPOCH":609,"BSTAR":0,"MEAN_MOTION_DOT":5.0e-8,"MEAN_MOTION_DDOT":0},{"OBJECT_NAME":"GALAXY 32 (G-32)","OBJECT_ID":"2022-153B","EPOCH":"2026-03-04T04:27:38.803392","MEAN_MOTION":1.00267915,"ECCENTRICITY":0.00030041,"INCLINATION":0.0222,"RA_OF_ASC_NODE":132.7365,"ARG_OF_PERICENTER":225.3208,"MEAN_ANOMALY":139.8078,"EPHEMERIS_TYPE":0,"CLASSIFICATION_TYPE":"U","NORAD_CAT_ID":54244,"ELEMENT_SET_NO":999,"REV_AT_EPOCH":1209,"BSTAR":0,"MEAN_MOTION_DOT":0,"MEAN_MOTION_DDOT":0},{"OBJECT_NAME":"GALAXY 35 (G-35)","OBJECT_ID":"2022-170A","EPOCH":"2026-03-05T13:33:14.223744","MEAN_MOTION":1.00270992,"ECCENTRICITY":0.0002026,"INCLINATION":0.0117,"RA_OF_ASC_NODE":191.0403,"ARG_OF_PERICENTER":154.8561,"MEAN_ANOMALY":287.5984,"EPHEMERIS_TYPE":0,"CLASSIFICATION_TYPE":"U","NORAD_CAT_ID":54741,"ELEMENT_SET_NO":999,"REV_AT_EPOCH":1185,"BSTAR":0,"MEAN_MOTION_DOT":-1.69e-6,"MEAN_MOTION_DDOT":0},{"OBJECT_NAME":"GALAXY 36 (G-36)","OBJECT_ID":"2022-170B","EPOCH":"2026-03-05T17:32:25.319040","MEAN_MOTION":1.00272473,"ECCENTRICITY":0.0002047,"INCLINATION":0.0176,"RA_OF_ASC_NODE":138.8464,"ARG_OF_PERICENTER":259.4397,"MEAN_ANOMALY":299.265,"EPHEMERIS_TYPE":0,"CLASSIFICATION_TYPE":"U","NORAD_CAT_ID":54742,"ELEMENT_SET_NO":999,"REV_AT_EPOCH":1173,"BSTAR":0,"MEAN_MOTION_DOT":-1.92e-6,"MEAN_MOTION_DDOT":0},{"OBJECT_NAME":"GALAXY 37 (G-37)","OBJECT_ID":"2023-112A","EPOCH":"2026-03-05T15:06:20.297376","MEAN_MOTION":1.00271705,"ECCENTRICITY":0.0002046,"INCLINATION":0.0171,"RA_OF_ASC_NODE":116.129,"ARG_OF_PERICENTER":231.8474,"MEAN_ANOMALY":274.9512,"EPHEMERIS_TYPE":0,"CLASSIFICATION_TYPE":"U","NORAD_CAT_ID":57493,"ELEMENT_SET_NO":999,"REV_AT_EPOCH":950,"BSTAR":0,"MEAN_MOTION_DOT":4.1e-7,"MEAN_MOTION_DDOT":0}]
